[ {"OBJECT_NAME": "NUSAT-36 (ANNIE CANNON)", "NORAD_CAT_ID": 56190, "MEAN_MOTION": 15.28580851, "ECCENTRICITY": 0.0010119, "INCLINATION": 97.3802, "RA_OF_ASC_NODE": 254.9322, "ARG_OF_PERICENTER": 59.1427, "MEAN_ANOMALY": 301.0806, "BSTAR": 0.00059254, "EPOCH": "2023-12-28T11:08:22"}, {"OBJECT_NAME": "GAOFEN-3", "NORAD_CAT_ID": 41727, "MEAN_MOTION": 14.42216956, "ECCENTRICITY": 0.0001695, "INCLINATION": 98.4059, "RA_OF_ASC_NODE": 80.4001, "ARG_OF_PERICENTER": 89.2451, "MEAN_ANOMALY": 270.8933, "BSTAR": 3.8487e-05, "EPOCH": "2026-03-12T03:54:51"}, {"OBJECT_NAME": "GAOFEN-3 03", "NORAD_CAT_ID": 52200, "MEAN_MOTION": 14.422076, "ECCENTRICITY": 0.000158, "INCLINATION": 98.4113, "RA_OF_ASC_NODE": 81.1431, "ARG_OF_PERICENTER": 93.6187, "MEAN_ANOMALY": 266.5183, "BSTAR": 2.4808e-05, "EPOCH": "2026-03-12T04:04:32"}, {"OBJECT_NAME": "GAOFEN-6", "NORAD_CAT_ID": 43484, "MEAN_MOTION": 14.76602015, "ECCENTRICITY": 0.0013318, "INCLINATION": 97.7865, "RA_OF_ASC_NODE": 137.3609, "ARG_OF_PERICENTER": 127.3074, "MEAN_ANOMALY": 232.9352, "BSTAR": 0.00013023, "EPOCH": "2026-03-12T04:01:42"}, {"OBJECT_NAME": "GAOFEN-3 02", "NORAD_CAT_ID": 49495, "MEAN_MOTION": 14.42217124, "ECCENTRICITY": 0.00015, "INCLINATION": 98.4136, "RA_OF_ASC_NODE": 80.6577, "ARG_OF_PERICENTER": 297.5762, "MEAN_ANOMALY": 62.5275, "BSTAR": 7.9148e-05, "EPOCH": "2026-03-12T04:43:52"}, {"OBJECT_NAME": "GAOFEN-2", "NORAD_CAT_ID": 40118, "MEAN_MOTION": 14.80777993, "ECCENTRICITY": 0.000728, "INCLINATION": 98.0216, "RA_OF_ASC_NODE": 135.4748, "ARG_OF_PERICENTER": 176.6495, "MEAN_ANOMALY": 183.4767, "BSTAR": 0.00016761, "EPOCH": "2026-03-12T05:06:51"}, {"OBJECT_NAME": "GAOFEN-8", "NORAD_CAT_ID": 40701, "MEAN_MOTION": 15.42526201, "ECCENTRICITY": 0.0009561, "INCLINATION": 97.6941, "RA_OF_ASC_NODE": 258.9945, "ARG_OF_PERICENTER": 178.5084, "MEAN_ANOMALY": 181.6192, "BSTAR": 0.00024229, "EPOCH": "2026-03-12T05:06:32"}, {"OBJECT_NAME": "GAOFEN-7", "NORAD_CAT_ID": 44703, "MEAN_MOTION": 15.21347931, "ECCENTRICITY": 0.0015611, "INCLINATION": 97.254, "RA_OF_ASC_NODE": 136.25, "ARG_OF_PERICENTER": 21.707, "MEAN_ANOMALY": 338.4825, "BSTAR": 0.00025435000000000003, "EPOCH": "2026-03-12T04:30:44"}, {"OBJECT_NAME": "GAOFEN-5 02", "NORAD_CAT_ID": 49122, "MEAN_MOTION": 14.57725004, "ECCENTRICITY": 1.68e-05, "INCLINATION": 98.2671, "RA_OF_ASC_NODE": 146.1843, "ARG_OF_PERICENTER": 307.194, "MEAN_ANOMALY": 52.9243, "BSTAR": 8.2549e-05, "EPOCH": "2026-03-12T04:50:18"}, {"OBJECT_NAME": "JILIN-1 GAOFEN 3B", "NORAD_CAT_ID": 46454, "MEAN_MOTION": 15.80772799, "ECCENTRICITY": 0.0003267, "INCLINATION": 97.2357, "RA_OF_ASC_NODE": 128.8526, "ARG_OF_PERICENTER": 145.1916, "MEAN_ANOMALY": 214.9567, "BSTAR": 0.00093894, "EPOCH": "2026-03-12T04:15:59"}, {"OBJECT_NAME": "JILIN-1 GAOFEN 2F", "NORAD_CAT_ID": 49338, "MEAN_MOTION": 15.06963444, "ECCENTRICITY": 0.0018859, "INCLINATION": 97.6533, "RA_OF_ASC_NODE": 197.768, "ARG_OF_PERICENTER": 193.8972, "MEAN_ANOMALY": 166.1738, "BSTAR": 0.00035447, "EPOCH": "2026-03-12T04:26:15"}, {"OBJECT_NAME": "CAPELLA-6-WHITNEY", "NORAD_CAT_ID": 48605, "MEAN_MOTION": 15.36992166, "ECCENTRICITY": 0.0006978, "INCLINATION": 53.0293, "RA_OF_ASC_NODE": 151.2332, "ARG_OF_PERICENTER": 275.4158, "MEAN_ANOMALY": 84.6048, "BSTAR": 0.0028544000000000004, "EPOCH": "2023-12-28T11:48:20"}, {"OBJECT_NAME": "CAPELLA-8-WHITNEY", "NORAD_CAT_ID": 51071, "MEAN_MOTION": 16.38892911, "ECCENTRICITY": 0.0015575, "INCLINATION": 97.4006, "RA_OF_ASC_NODE": 322.5782, "ARG_OF_PERICENTER": 273.5387, "MEAN_ANOMALY": 175.0653, "BSTAR": 0.0030023, "EPOCH": "2023-09-06T01:34:15"}, {"OBJECT_NAME": "CAPELLA-7-WHITNEY", "NORAD_CAT_ID": 51072, "MEAN_MOTION": 16.44927659, "ECCENTRICITY": 0.0015288, "INCLINATION": 97.3947, "RA_OF_ASC_NODE": 311.3663, "ARG_OF_PERICENTER": 273.4288, "MEAN_ANOMALY": 179.2482, "BSTAR": 0.0011137, "EPOCH": "2023-08-26T19:44:02"}, {"OBJECT_NAME": "CAPELLA-10-WHITNEY", "NORAD_CAT_ID": 55909, "MEAN_MOTION": 14.95890017, "ECCENTRICITY": 0.0009144, "INCLINATION": 43.9994, "RA_OF_ASC_NODE": 246.9297, "ARG_OF_PERICENTER": 166.1646, "MEAN_ANOMALY": 193.9462, "BSTAR": 0.00065599, "EPOCH": "2023-12-27T21:10:20"}, {"OBJECT_NAME": "CAPELLA-9-WHITNEY", "NORAD_CAT_ID": 55910, "MEAN_MOTION": 14.99271847, "ECCENTRICITY": 0.0009067, "INCLINATION": 43.9991, "RA_OF_ASC_NODE": 244.4088, "ARG_OF_PERICENTER": 156.0492, "MEAN_ANOMALY": 204.0788, "BSTAR": 0.0013163, "EPOCH": "2023-12-27T21:00:03"}, {"OBJECT_NAME": "CAPELLA-14 (ACADIA-4)", "NORAD_CAT_ID": 59444, "MEAN_MOTION": 15.1066668, "ECCENTRICITY": 0.0004072, "INCLINATION": 45.605, "RA_OF_ASC_NODE": 46.7322, "ARG_OF_PERICENTER": 130.8856, "MEAN_ANOMALY": 229.2383, "BSTAR": 0.001358, "EPOCH": "2026-03-12T05:07:10"}, {"OBJECT_NAME": "CAPELLA-13 (ACADIA-3)", "NORAD_CAT_ID": 60419, "MEAN_MOTION": 14.87655284, "ECCENTRICITY": 0.0001329, "INCLINATION": 53.0038, "RA_OF_ASC_NODE": 123.7585, "ARG_OF_PERICENTER": 89.8746, "MEAN_ANOMALY": 270.2386, "BSTAR": 0.0005938299999999999, "EPOCH": "2026-03-11T13:10:05"}, {"OBJECT_NAME": "CAPELLA-15 (ACADIA-5)", "NORAD_CAT_ID": 60544, "MEAN_MOTION": 14.92443533, "ECCENTRICITY": 0.0003899, "INCLINATION": 97.6838, "RA_OF_ASC_NODE": 145.8785, "ARG_OF_PERICENTER": 55.9996, "MEAN_ANOMALY": 304.1593, "BSTAR": -0.00029632, "EPOCH": "2026-03-11T13:39:49"}, {"OBJECT_NAME": "CAPELLA-17 (ACADIA-7)", "NORAD_CAT_ID": 64583, "MEAN_MOTION": 14.90891268, "ECCENTRICITY": 0.0004418, "INCLINATION": 97.756, "RA_OF_ASC_NODE": 186.3323, "ARG_OF_PERICENTER": 322.3151, "MEAN_ANOMALY": 37.7757, "BSTAR": 0.0010062, "EPOCH": "2026-03-12T04:32:02"}, {"OBJECT_NAME": "CAPELLA-16 (ACADIA-6)", "NORAD_CAT_ID": 65318, "MEAN_MOTION": 14.93517063, "ECCENTRICITY": 0.0004731, "INCLINATION": 97.7403, "RA_OF_ASC_NODE": 147.7642, "ARG_OF_PERICENTER": 189.5884, "MEAN_ANOMALY": 170.5246, "BSTAR": 0.0007663100000000001, "EPOCH": "2026-03-12T04:21:35"}, {"OBJECT_NAME": "CAPELLA-19 (ACADIA-9)", "NORAD_CAT_ID": 67384, "MEAN_MOTION": 14.86727012, "ECCENTRICITY": 0.0001592, "INCLINATION": 97.8008, "RA_OF_ASC_NODE": 71.1496, "ARG_OF_PERICENTER": 94.8982, "MEAN_ANOMALY": 224.979, "BSTAR": -0.00055879, "EPOCH": "2026-03-12T00:00:01"}, {"OBJECT_NAME": "CAPELLA-18 (ACADIA-8)", "NORAD_CAT_ID": 67385, "MEAN_MOTION": 14.88701634, "ECCENTRICITY": 0.0005623, "INCLINATION": 97.8015, "RA_OF_ASC_NODE": 71.2073, "ARG_OF_PERICENTER": 82.1443, "MEAN_ANOMALY": 278.0412, "BSTAR": 0.00059446, "EPOCH": "2026-03-11T23:22:27"}, {"OBJECT_NAME": "CAPELLA-11 (ACADIA-1)", "NORAD_CAT_ID": 57693, "MEAN_MOTION": 14.80532132, "ECCENTRICITY": 0.0002385, "INCLINATION": 53.0068, "RA_OF_ASC_NODE": 247.3309, "ARG_OF_PERICENTER": 122.2368, "MEAN_ANOMALY": 237.884, "BSTAR": 0.00043216, "EPOCH": "2026-03-11T12:14:44"}, {"OBJECT_NAME": "PLANETUM1", "NORAD_CAT_ID": 52738, "MEAN_MOTION": 16.30442171, "ECCENTRICITY": 0.0009881, "INCLINATION": 97.5537, "RA_OF_ASC_NODE": 110.7236, "ARG_OF_PERICENTER": 292.3042, "MEAN_ANOMALY": 67.7204, "BSTAR": 0.0013242000000000002, "EPOCH": "2024-11-28T20:09:41"}, {"OBJECT_NAME": "SKYSAT-C14", "NORAD_CAT_ID": 45788, "MEAN_MOTION": 15.53833173, "ECCENTRICITY": 0.001113, "INCLINATION": 52.9777, "RA_OF_ASC_NODE": 149.837, "ARG_OF_PERICENTER": 213.0476, "MEAN_ANOMALY": 146.9838, "BSTAR": 0.00062044, "EPOCH": "2023-12-27T15:51:00"}, {"OBJECT_NAME": "SKYSAT-C16", "NORAD_CAT_ID": 45789, "MEAN_MOTION": 15.53303284, "ECCENTRICITY": 0.000551, "INCLINATION": 52.9788, "RA_OF_ASC_NODE": 133.7921, "ARG_OF_PERICENTER": 2.6753, "MEAN_ANOMALY": 357.4284, "BSTAR": 0.0005727, "EPOCH": "2023-12-28T12:24:10"}, {"OBJECT_NAME": "SKYSAT-C15", "NORAD_CAT_ID": 45790, "MEAN_MOTION": 15.47687342, "ECCENTRICITY": 0.0003931, "INCLINATION": 52.9782, "RA_OF_ASC_NODE": 154.0912, "ARG_OF_PERICENTER": 180.8503, "MEAN_ANOMALY": 179.2497, "BSTAR": 0.00058075, "EPOCH": "2023-12-27T15:49:43"}, {"OBJECT_NAME": "SKYSAT-C17", "NORAD_CAT_ID": 46179, "MEAN_MOTION": 15.7911991, "ECCENTRICITY": 0.0006126, "INCLINATION": 52.97, "RA_OF_ASC_NODE": 214.8332, "ARG_OF_PERICENTER": 89.9494, "MEAN_ANOMALY": 270.2227, "BSTAR": 0.00064037, "EPOCH": "2023-12-27T20:37:45"}, {"OBJECT_NAME": "SKYSAT-C18", "NORAD_CAT_ID": 46180, "MEAN_MOTION": 16.35747614, "ECCENTRICITY": 0.0017318, "INCLINATION": 52.9561, "RA_OF_ASC_NODE": 11.8431, "ARG_OF_PERICENTER": 265.4879, "MEAN_ANOMALY": 104.1762, "BSTAR": 0.0015942999999999999, "EPOCH": "2023-06-25T20:09:47"}, {"OBJECT_NAME": "SKYSAT-C19", "NORAD_CAT_ID": 46235, "MEAN_MOTION": 15.89514628, "ECCENTRICITY": 0.0002149, "INCLINATION": 52.9675, "RA_OF_ASC_NODE": 201.9813, "ARG_OF_PERICENTER": 132.3648, "MEAN_ANOMALY": 227.7558, "BSTAR": 0.0007014899999999999, "EPOCH": "2023-12-27T23:17:19"}, {"OBJECT_NAME": "SKYSAT-A", "NORAD_CAT_ID": 39418, "MEAN_MOTION": 15.12373015, "ECCENTRICITY": 0.0020118, "INCLINATION": 97.3951, "RA_OF_ASC_NODE": 123.5529, "ARG_OF_PERICENTER": 291.5858, "MEAN_ANOMALY": 68.3229, "BSTAR": 0.0002253, "EPOCH": "2026-03-12T02:00:20"}, {"OBJECT_NAME": "SKYSAT-B", "NORAD_CAT_ID": 40072, "MEAN_MOTION": 14.87736395, "ECCENTRICITY": 0.0004471, "INCLINATION": 98.3727, "RA_OF_ASC_NODE": 24.3122, "ARG_OF_PERICENTER": 224.9142, "MEAN_ANOMALY": 135.1711, "BSTAR": 0.00026357999999999997, "EPOCH": "2026-03-11T19:32:54"}, {"OBJECT_NAME": "SKYSAT-C1", "NORAD_CAT_ID": 41601, "MEAN_MOTION": 15.34566965, "ECCENTRICITY": 0.0003399, "INCLINATION": 96.9703, "RA_OF_ASC_NODE": 108.0862, "ARG_OF_PERICENTER": 47.429, "MEAN_ANOMALY": 312.724, "BSTAR": 0.00030343, "EPOCH": "2026-03-12T01:09:40"}, {"OBJECT_NAME": "SKYSAT-C4", "NORAD_CAT_ID": 41771, "MEAN_MOTION": 15.45471666, "ECCENTRICITY": 0.0001121, "INCLINATION": 96.9292, "RA_OF_ASC_NODE": 97.1735, "ARG_OF_PERICENTER": 125.8621, "MEAN_ANOMALY": 234.2733, "BSTAR": 0.00037941000000000006, "EPOCH": "2026-03-12T04:20:09"}, {"OBJECT_NAME": "SKYSAT-C5", "NORAD_CAT_ID": 41772, "MEAN_MOTION": 15.34342714, "ECCENTRICITY": 0.0001677, "INCLINATION": 97.0615, "RA_OF_ASC_NODE": 116.0693, "ARG_OF_PERICENTER": 87.0701, "MEAN_ANOMALY": 273.0735, "BSTAR": 0.00025964, "EPOCH": "2026-03-12T02:35:47"}]